ORBCOMM FM24 [-]        
1 25478U 98053D   23276.44152816  .00001932  00000+0  72555-3 0  9993
2 25478  45.0096 333.2579 0002250 276.1320  83.9271 14.34702140307910
ORBCOMM FM25 [-]        
1 25479U 98053E   23276.54448990  .00001749  00000+0  66176-3 0  9994
2 25479  45.0094 331.0046 0003111 333.7370  26.3319 14.34684904308222
ORBCOMM FM26 [-]        
1 25480U 98053F   23276.47648783  .00001676  00000+0  64136-3 0  9993
2 25480  45.0086 324.6342 0004213  14.4455 345.6512 14.34270149308160
ORBCOMM FM27 [+]        
1 25481U 98053G   23276.45940875  .00001937  00000+0  72791-3 0  9995
2 25481  45.0068 331.6607 0002343 237.0756 122.9866 14.34659077308149
ORBCOMM FM28 [-]        
1 25482U 98053H   23276.44825283  .00001843  00000+0  68812-3 0  9995
2 25482  45.0062 270.9695 0002693  22.4656 337.6309 14.35155514308807
ORBCOMM FM30 [-]        
1 25980U 99065A   23276.38957600  .00001594  00000+0  61119-3 0  9990
2 25980  45.0316 150.3530 0005638 126.3569 233.7799 14.34393196244942
ORBCOMM FM31 [-]        
1 25981U 99065B   23276.35748717  .00001409  00000+0  54568-3 0  9990
2 25981  45.0228 144.3787 0002697 147.4855 212.6158 14.34426978244496
ORBCOMM FM32 [+]        
1 25982U 99065C   23276.73667151  .00001447  00000+0  57077-3 0  9995
2 25982  45.0159 154.7772 0004685 156.1489 203.9575 14.33371888245336
